NORAD_CAT_ID,OBJECT_NAME,OBJECT_TYPE,EPOCH,MEAN_MOTION,ECCENTRICITY,INCLINATION,RA_OF_ASC_NODE,ARG_OF_PERICENTER,MEAN_ANOMALY,BSTAR,MEAN_MOTION_DOT,MEAN_MOTION_DDOT,TLE_LINE0,TLE_LINE1,TLE_LINE2,SEMIMAJOR_AXIS,PERIOD,APOGEE,PERIGEE,DECAYED
52694.0,STARLINK-4072,PAYLOAD,2023-09-10 18:49:35,15.0883518,0.0001494,53.2162,273.3321,97.522,262.5941,9.5905e-05,1.238e-05,0.0,0 STARLINK-4072,1 52694U 22053AQ  23253.78444436  .00001238  00000-0  95905-4 0  9999,2 52694  53.2162 273.3321 0001494  97.5220 262.5941 15.08835180 73234,6917.895,95.438,540.794,538.727,0.0
52694.0,STARLINK-4072,PAYLOAD,2023-09-11 12:18:50,15.08842372,0.0001526,53.2162,270.0615,96.6286,263.488,4.9346e-05,4.97e-06,0.0,0 STARLINK-4072,1 52694U 22053AQ  23254.51308190  .00000497  00000-0  49346-4 0  9991,2 52694  53.2162 270.0615 0001526  96.6286 263.4880 15.08842372 73741,6917.873,95.437,540.794,538.682,0.0
52694.0,STARLINK-4072,PAYLOAD,2023-09-12 07:23:27,15.08848115,0.0001547,53.2161,266.4941,89.0581,271.0589,0.00010426,1.372e-05,0.0,0 STARLINK-4072,1 52694U 22053AQ  23255.30795662  .00001372  00000-0  10426-3 0  9992,2 52694  53.2161 266.4941 0001547  89.0581 271.0589 15.08848115 73469,6917.856,95.437,540.791,538.65,0.0
52694.0,STARLINK-4072,PAYLOAD,2023-09-12 23:17:19,15.08841762,0.000153,53.2158,263.5215,85.6528,274.4639,0.00010696,1.415e-05,0.0,0 STARLINK-4072,1 52694U 22053AQ  23255.97036026  .00001415  00000-0  10696-3 0  9994,2 52694  53.2158 263.5215 0001530  85.6528 274.4639 15.08841762 73567,6917.875,95.437,540.798,538.682,0.0
52694.0,STARLINK-4072,PAYLOAD,2023-09-13 10:25:00,15.08847581,0.0001522,53.216,261.4388,88.6084,271.5082,0.00012407,1.688e-05,0.0,0 STARLINK-4072,1 52694U 22053AQ  23256.43403578  .00001688  00000-0  12407-3 0  9990,2 52694  53.2160 261.4388 0001522  88.6084 271.5082 15.08847581 74037,6917.857,95.437,540.775,538.669,0.0
52694.0,STARLINK-4072,PAYLOAD,2023-09-14 00:43:29,15.08832424,0.0001643,53.2174,258.7569,127.506,232.6082,2.9882e-05,1.87e-06,0.0,0 STARLINK-4072,1 52694U 22053AQ  23257.03020645  .00000187  00000-0  29882-4 0  9996,2 52694  53.2174 258.7569 0001643 127.5060 232.6082 15.08832424 73726,6917.904,95.438,540.905,538.632,0.0
52694.0,STARLINK-4072,PAYLOAD,2023-09-14 07:05:02,15.08829795,0.0001689,53.2169,257.5695,103.7587,256.3593,-5.9515e-05,-1.235e-05,0.0,0 STARLINK-4072,1 52694U 22053AQ  23257.29517313 -.00001235  00000-0 -59515-4 0  9990,2 52694  53.2169 257.5695 0001689 103.7587 256.3593 15.08829795 74163,6917.912,95.438,540.945,538.608,0.0
52694.0,STARLINK-4072,PAYLOAD,2023-09-14 16:37:21,15.08833632,0.0001635,53.2171,255.7911,101.0909,259.0267,-5.1927e-06,-3.71e-06,0.0,0 STARLINK-4072,1 52694U 22053AQ  23257.69261202 -.00000371  00000-0 -51927-5 0  9997,2 52694  53.2171 255.7911 0001635 101.0909 259.0267 15.08833632 74227,6917.9,95.438,540.896,538.634,0.0
52694.0,STARLINK-4072,PAYLOAD,2023-09-15 06:55:49,15.08844155,0.0001528,53.2162,253.1136,96.8362,263.2804,0.00011436,1.533e-05,0.0,0 STARLINK-4072,1 52694U 22053AQ  23258.28876451  .00001533  00000-0  11436-3 0  9999,2 52694  53.2162 253.1136 0001528  96.8362 263.2804 15.08844155 73914,6917.868,95.437,540.79,538.676,0.0
52694.0,STARLINK-4072,PAYLOAD,2023-09-15 10:06:35,15.08845985,0.0001658,53.2167,252.5184,107.0755,253.0419,0.00012664,1.728e-05,0.0,0 STARLINK-4072,1 52694U 22053AQ  23258.42124266  .00001728  00000-0  12664-3 0  9995,2 52694  53.2167 252.5184 0001658 107.0755 253.0419 15.08845985 74338,6917.862,95.437,540.874,538.58,0.0
52694.0,STARLINK-4072,PAYLOAD,2023-09-15 16:28:08,15.08837785,0.0001573,53.2156,251.3283,94.5699,265.5473,5.1919e-05,5.38e-06,0.0,0 STARLINK-4072,1 52694U 22053AQ  23258.68620869  .00000538  00000-0  51919-4 0  9998,2 52694  53.2156 251.3283 0001573  94.5699 265.5473 15.08837785 73972,6917.887,95.438,540.84,538.664,0.0
52694.0,STARLINK-4072,PAYLOAD,2023-09-16 08:21:59,15.08844561,0.0001599,53.2156,248.3546,89.693,270.4245,0.00025538,3.779e-05,0.0,0 STARLINK-4072,1 52694U 22053AQ  23259.34860761  .00003779  00000-0  25538-3 0  9996,2 52694  53.2156 248.3546 0001599  89.6930 270.4245 15.08844561 74479,6917.866,95.437,540.838,538.625,0.0
52694.0,STARLINK-4072,PAYLOAD,2023-09-16 22:40:25,15.08876381,0.0001433,53.2161,245.6792,74.4579,285.6571,0.00047772,7.331e-05,0.0,0 STARLINK-4072,1 52694U 22053AQ  23259.94474370  .00007331  00000-0  47772-3 0  9991,2 52694  53.2161 245.6792 0001433  74.4579 285.6571 15.08876381 74167,6917.769,95.435,540.626,538.643,0.0
52694.0,STARLINK-4072,PAYLOAD,2023-09-17 06:37:22,15.08839978,0.0001435,53.2159,244.1912,92.1309,267.9847,-0.00013124,-2.376e-05,0.0,0 STARLINK-4072,1 52694U 22053AQ  23260.27595747 -.00002376  00000-0 -13124-3 0  9991,2 52694  53.2159 244.1912 0001435  92.1309 267.9847 15.08839978 74218,6917.88,95.438,540.738,538.753,0.0
52694.0,STARLINK-4072,PAYLOAD,2023-09-17 11:23:31,15.08842071,0.0001319,53.2154,243.2984,95.7187,264.3956,-9.7056e-05,-1.832e-05,0.0,0 STARLINK-4072,1 52694U 22053AQ  23260.47467501 -.00001832  00000-0 -97056-4 0  9992,2 52694  53.2154 243.2984 0001319  95.7187 264.3956 15.08842071 74643,6917.874,95.437,540.652,538.827,0.0
52694.0,STARLINK-4072,PAYLOAD,2023-09-18 06:28:10,15.08833905,0.000142,53.2151,239.7295,90.1706,269.9449,-0.00012421,-2.264e-05,0.0,0 STARLINK-4072,1 52694U 22053AQ  23261.26956392 -.00002264  00000-0 -12421-3 0  9993,2 52694  53.2151 239.7295 0001420  90.1706 269.9449 15.08833905 74761,6917.899,95.438,540.746,538.782,0.0
52694.0,STARLINK-4072,PAYLOAD,2023-09-18 16:00:29,15.08836845,0.0001414,53.2152,237.9456,97.7545,262.3608,-1.9844e-05,-6.04e-06,0.0,0 STARLINK-4072,1 52694U 22053AQ  23261.66700454 -.00000604  00000-0 -19844-4 0  9996,2 52694  53.2152 237.9456 0001414  97.7545 262.3608 15.08836845 74421,6917.89,95.438,540.733,538.777,0.0
52694.0,STARLINK-4072,PAYLOAD,2023-09-19 07:54:20,15.08851416,0.0001443,53.2148,234.9712,95.3992,264.7164,0.00067097,0.0001041,0.0,0 STARLINK-4072,1 52694U 22053AQ  23262.32940473  .00010410  00000-0  67097-3 0  9993,2 52694  53.2148 234.9712 0001443  95.3992 264.7164 15.08851416 74525,6917.845,95.437,540.709,538.712,0.0
52694.0,STARLINK-4072,PAYLOAD,2023-09-19 15:51:16,15.08836225,0.0001939,53.2153,233.4842,91.8688,268.2526,0.00029303,4.378e-05,0.0,0 STARLINK-4072,1 52694U 22053AQ  23262.66061334  .00004378  00000-0  29303-3 0  9994,2 52694  53.2153 233.4842 0001939  91.8688 268.2526 15.08836225 74579,6917.892,95.438,541.098,538.416,0.0
52694.0,STARLINK-4072,PAYLOAD,2023-09-20 04:34:21,15.08841218,0.0001596,53.2154,231.107,91.2695,268.848,0.00031065,4.66e-05,0.0,0 STARLINK-4072,1 52694U 22053AQ  23263.19053178  .00004660  00000-0  31065-3 0  9992,2 52694  53.2154 231.1070 0001596  91.2695 268.8480 15.08841218 75056,6917.877,95.437,540.846,538.638,0.0
52694.0,STARLINK-4072,PAYLOAD,2023-09-20 18:52:50,15.08830759,0.0001628,53.215,228.4301,89.1034,271.0145,0.00024145,3.556e-05,0.0,0 STARLINK-4072,1 52694U 22053AQ  23263.78669784  .00003556  00000-0  24145-3 0  9997,2 52694  53.2150 228.4301 0001628  89.1034 271.0145 15.08830759 74744,6917.909,95.438,540.9,538.647,0.0
52694.0,STARLINK-4072,PAYLOAD,2023-09-21 04:25:09,15.08837745,0.0001506,53.2159,226.6476,87.8383,272.2782,0.00016721,2.374e-05,0.0,0 STARLINK-4072,1 52694U 22053AQ  23264.18413793  .00002374  00000-0  16721-3 0  9997,2 52694  53.2159 226.6476 0001506  87.8383 272.2782 15.08837745 75207,6917.887,95.438,540.794,538.71,0.0
52694.0,STARLINK-4072,PAYLOAD,2023-09-21 21:54:24,15.08838082,0.0001516,53.2158,223.3775,87.5018,272.6148,0.00022315,3.265e-05,0.0,0 STARLINK-4072,1 52694U 22053AQ  23264.91278095  .00003265  00000-0  22315-3 0  9998,2 52694  53.2158 223.3775 0001516  87.5018 272.6148 15.08838082 75312,6917.886,95.438,540.8,538.702,0.0
52694.0,STARLINK-4072,PAYLOAD,2023-09-22 01:05:10,15.08840205,0.0001471,53.2158,222.7826,87.9006,272.2154,0.00025781,3.817e-05,0.0,0 STARLINK-4072,1 52694U 22053AQ  23265.04526019  .00003817  00000-0  25781-3 0  9998,2 52694  53.2158 222.7826 0001471  87.9006 272.2154 15.08840205 74933,6917.88,95.438,540.762,538.727,0.0
52694.0,STARLINK-4072,PAYLOAD,2023-09-22 04:15:56,15.08848842,0.0001438,53.216,222.1888,90.9409,269.1748,4.631e-05,4.49e-06,0.0,0 STARLINK-4072,1 52694U 22053AQ  23265.17773511  .00000449  00000-0  46310-4 0  9993,2 52694  53.2160 222.1888 0001438  90.9409 269.1748 15.08848842 75358,6917.853,95.437,540.713,538.724,0.0
52694.0,STARLINK-4072,PAYLOAD,2023-09-22 20:09:47,15.08843778,0.0001477,53.216,219.2155,91.5627,268.5535,0.00018971,2.733e-05,0.0,0 STARLINK-4072,1 52694U 22053AQ  23265.84013835  .00002733  00000-0  18971-3 0  9992,2 52694  53.2160 219.2155 0001477  91.5627 268.5535 15.08843778 75455,6917.869,95.437,540.756,538.712,0.0
52694.0,STARLINK-4072,PAYLOAD,2023-09-23 04:06:43,15.08854451,0.0001484,53.216,217.7291,93.3643,266.7518,0.00033213,5.004e-05,0.0,0 STARLINK-4072,1 52694U 22053AQ  23266.17133258  .00005004  00000-0  33213-3 0  9991,2 52694  53.2160 217.7291 0001484  93.3643 266.7518 15.08854451 75108,6917.836,95.437,540.728,538.675,0.0
52694.0,STARLINK-4072,PAYLOAD,2023-09-24 02:22:07,15.08839773,0.0001386,53.2154,213.5657,100.3652,259.7496,-4.1599e-05,-9.5e-06,0.0,0 STARLINK-4072,1 52694U 22053AQ  23267.09869565 -.00000950  00000-0 -41599-4 0  9994,2 52694  53.2154 213.5657 0001386 100.3652 259.7496 15.08839773 75243,6917.881,95.438,540.705,538.787,0.0
52694.0,STARLINK-4072,PAYLOAD,2023-09-24 05:32:53,15.0884623,0.0001267,53.2165,212.9692,91.1855,268.9282,7.3257e-05,8.78e-06,0.0,0 STARLINK-4072,1 52694U 22053AQ  23267.23117456  .00000878  00000-0  73257-4 0  9998,2 52694  53.2165 212.9692 0001267  91.1855 268.9282 15.08846230 75664,6917.861,95.437,540.603,538.85,0.0
52694.0,STARLINK-4072,PAYLOAD,2023-09-24 19:51:21,15.08843932,0.0001365,53.2168,210.2941,107.801,252.3131,-2.3146e-05,-6.56e-06,0.0,0 STARLINK-4072,1 52694U 22053AQ  23267.82733788 -.00000656  00000-0 -23146-4 0  9993,2 52694  53.2168 210.2941 0001365 107.8010 252.3131 15.08843932 75758,6917.868,95.437,540.678,538.789,0.0
